[{"OBJECT_NAME":"STARLINK-3503","OBJECT_ID":"2022-022P","EPOCH":"2026-03-09T02:28:09.690816","MEAN_MOTION":15.08836556,"ECCENTRICITY":0.00013821,"INCLINATION":53.2178,"RA_OF_ASC_NODE":11.7545,"ARG_OF_PERICENTER":99.4768,"MEAN_ANOMALY":260.6381,"EPHEMERIS_TYPE":0,"CLASSIFICATION_TYPE":"U","NORAD_CAT_ID":51865,"ELEMENT_SET_NO":999,"REV_AT_EPOCH":22302,"BSTAR":1.3921816e-5,"MEAN_MOTION_DOT":-6.6e-7,"MEAN_MOTION_DDOT":0},{"OBJECT_NAME":"JILIN-01 KUANFU 02B 3","OBJECT_ID":"2024-169C","EPOCH":"2026-03-09T22:06:48.862368","MEAN_MOTION":15.0924242,"ECCENTRICITY":0.00160506,"INCLINATION":97.5557,"RA_OF_ASC_NODE":159.7436,"ARG_OF_PERICENTER":304.8201,"MEAN_ANOMALY":55.1517,"EPHEMERIS_TYPE":0,"CLASSIFICATION_TYPE":"U","NORAD_CAT_ID":61191,"ELEMENT_SET_NO":999,"REV_AT_EPOCH":8085,"BSTAR":0.00039569069,"MEAN_MOTION_DOT":6.253e-5,"MEAN_MOTION_DDOT":0}]
